     2.100          NAVIGATION                              RINEX VERSION / TYPE
fic2rin                                 02/14/2010 00:12:02 PGM / RUN BY / DATE
                                                            END OF HEADER
 6 10  2 13  6  0  0.0  .250149518251D-03 -.511590769747D-11  .000000000000D+00
     .104000000000D+03 -.499687500000D+02  .484305887570D-08  .209079481662D+01
    -.247359275818D-05  .598853558768D-02  .110901892185D-04  .515367308235D+04
     .540000000000D+06  .130385160446D-06  .150562659745D+00 -.931322574615D-08
     .934820864710D+00  .147437500000D+03 -.114811961643D+01 -.800533345427D-08
     .111433213069D-09  .100000000000D+01  .157000000000D+04  .000000000000D+00
     .240000000000D+01  .000000000000D+00 -.465661287308D-08  .104000000000D+03
     .532806000000D+06  .400000000000D+01
 7 10  2 13  6  0  0.0  .292807817459D-05 -.454747350886D-12  .000000000000D+00
     .103000000000D+03  .697187500000D+02  .460376319379D-08 -.170826674456D+01
     .353902578354D-05  .324218091555D-02  .265054404736D-05  .515372294998D+04
     .540000000000D+06  .391155481339D-07 -.189284662523D+01 -.409781932831D-07
     .970296170239D+00  .335218750000D+03  .307222543923D+01 -.832106089130D-08
     .288583449230D-09  .100000000000D+01  .157000000000D+04  .000000000000D+00
     .340000000000D+01  .000000000000D+00 -.107102096081D-07  .103000000000D+03
     .532806000000D+06  .400000000000D+01
 8 10  2 13  6  0  0.0  .321725383401D-05  .454747350886D-12  .000000000000D+00
     .440000000000D+02  .536875000000D+02  .418874590665D-08 -.230545148255D+01
     .277347862720D-05  .109433640027D-01  .257790088654D-05  .515371540642D+04
     .540000000000D+06 -.137835741043D-06 -.182705715844D+01 -.152736902237D-06
     .991566596809D+00  .351250000000D+03  .308769953860D+01 -.804319217410D-08
     .272511351192D-09  .100000000000D+01  .157000000000D+04  .000000000000D+00
     .340000000000D+01  .000000000000D+00 -.419095158577D-08  .440000000000D+02
     .532806000000D+06  .400000000000D+01
 9 10  2 13  6  0  0.0  .105757266283D-03  .227373675443D-11  .000000000000D+00
     .560000000000D+02  .832187500000D+02  .436446751188D-08 -.244582425079D+01
     .429898500443D-05  .206938054180D-01  .229291617870D-05  .515360412216D+04
     .540000000000D+06  .244006514549D-06 -.192499895184D+01  .707805156708D-07
     .979121890643D+00  .342031250000D+03  .153053331318D+01 -.790247202682D-08
     .400373820034D-09  .100000000000D+01  .157000000000D+04  .000000000000D+00
     .340000000000D+01  .000000000000D+00 -.558793544769D-08  .560000000000D+02
     .532806000000D+06  .400000000000D+01
10 10  2 13  6  0  0.0 -.353199429810D-04 -.909494701773D-12  .000000000000D+00
     .470000000000D+02 -.333750000000D+02  .483127267047D-08  .140235880208D+01
    -.167265534401D-05  .913471053354D-02  .786595046520D-05  .515344836235D+04
     .540000000000D+06 -.838190317154D-07  .231746014697D+01  .102445483208D-06
     .954466984078D+00  .227312500000D+03  .649599511364D+00 -.821605651745D-08
    -.579667002600D-09  .100000000000D+01  .157000000000D+04  .000000000000D+00
     .240000000000D+01  .000000000000D+00 -.279396772385D-08  .470000000000D+02
     .532806000000D+06  .400000000000D+01
11 10  2 13  6  0  0.0 -.450909137726D-04 -.204636307899D-11  .000000000000D+00
     .184000000000D+03  .495625000000D+02  .627454707436D-08 -.179601935304D+01
     .253692269325D-05  .104806582676D-01  .605545938015D-05  .515372142792D+04
     .540000000000D+06  .126659870148D-06  .101816062031D+01 -.113621354103D-06
     .888560954896D+00  .222187500000D+03  .792576123097D+00 -.880108088606D-08
     .521450291926D-09  .100000000000D+01  .157000000000D+04  .000000000000D+00
     .340000000000D+01  .000000000000D+00 -.116415321827D-07  .184000000000D+03
     .532806000000D+06  .400000000000D+01
12 10  2 13  6  0  0.0 -.150755979121D-03  .477484718431D-11  .000000000000D+00
     .132000000000D+03 -.110843750000D+03  .446482883519D-08 -.160106357228D+01
    -.570714473724D-05  .339919386897D-02  .525824725628D-05  .515375333405D+04
     .540000000000D+06 -.391155481339D-07 -.838891765701D+00 -.521540641785D-07
     .969649460969D+00  .280750000000D+03 -.548767173235D+00 -.822284251440D-08
    -.348228790841D-09  .100000000000D+01  .157000000000D+04  .000000000000D+00
     .240000000000D+01  .000000000000D+00 -.121071934700D-07  .132000000000D+03
     .532806000000D+06  .400000000000D+01
13 10  2 13  6  0  0.0  .306496396661D-03 -.113686837722D-12  .000000000000D+00
     .530000000000D+02  .769375000000D+02  .347835917334D-08  .792555011726D+00
     .395625829697D-05  .413515313994D-02  .110492110252D-04  .515359499741D+04
     .540000000000D+06 -.577419996262D-07 -.287621887952D+01 -.111758708954D-07
     .993950780234D+00  .183500000000D+03  .163759015853D+01 -.754602860809D-08
     .760745973838D-10  .100000000000D+01  .157000000000D+04  .000000000000D+00
     .240000000000D+01  .000000000000D+00 -.111758708954D-07  .530000000000D+02
     .532806000000D+06  .400000000000D+01
14 10  2 13  6  0  0.0  .111921690404D-04  .432009983342D-11  .000000000000D+00
     .880000000000D+02  .754062500000D+02  .366300972192D-08  .619692623565D+00
     .381283462048D-05  .497620494571D-02  .117793679237D-04  .515371520233D+04
     .540000000000D+06 -.540167093277D-07 -.289734733867D+01  .316649675369D-07
     .987279199387D+00  .164875000000D+03 -.209603047023D+01 -.764031824992D-08
     .292869342041D-10  .100000000000D+01  .157000000000D+04  .000000000000D+00
     .340000000000D+01  .000000000000D+00 -.884756445885D-08  .880000000000D+02
     .532806000000D+06  .400000000000D+01
15 10  2 13  6  0  0.0 -.306909438223D-03  .295585778076D-11  .000000000000D+00
     .270000000000D+02  .767500000000D+02  .434375236329D-08  .668994226798D+00
     .394508242607D-05  .238641630858D-02  .112447887659D-04  .515373112488D+04
     .540000000000D+06  .577419996262D-07 -.295804724764D+01 -.223517417908D-07
     .954985237437D+00  .158312500000D+03 -.294153568334D+00 -.790497213096D-08
    -.203579908492D-10  .100000000000D+01  .157000000000D+04  .000000000000D+00
     .240000000000D+01  .000000000000D+00 -.977888703346D-08  .270000000000D+02
     .532806000000D+06  .400000000000D+01
17 10  2 13  6  0  0.0  .129374675453D-03  .318323145621D-11  .000000000000D+00
     .790000000000D+02 -.207500000000D+02  .427874965567D-08  .105818640567D+01
    -.103376805782D-05  .515374226961D-02  .118520110846D-04  .515357170105D+04
     .540000000000D+06 -.763684511185D-07  .221058579771D+00  .633299350739D-07
     .960568337013D+00  .152468750000D+03 -.258039896557D+01 -.786104172966D-08
     .167149819604D-09  .100000000000D+01  .157000000000D+04  .000000000000D+00
     .240000000000D+01  .000000000000D+00 -.102445483208D-07  .790000000000D+02
     .532806000000D+06  .400000000000D+01
18 10  2 13  6  0  0.0  .485545024276D-04  .250111042988D-11  .000000000000D+00
     .188000000000D+03 -.445000000000D+02  .506628245957D-08  .253455306011D+01
    -.228919088840D-05  .109541629208D-01  .761076807976D-05  .515366337395D+04
     .540000000000D+06 -.149011611938D-07  .231896066936D+01 -.225380063057D-06
     .938462168751D+00  .219875000000D+03 -.235269350340D+01 -.814569644381D-08
    -.457876215239D-09  .100000000000D+01  .157000000000D+04  .000000000000D+00
     .240000000000D+01  .000000000000D+00 -.107102096081D-07  .188000000000D+03
     .532806000000D+06  .400000000000D+01
19 10  2 13  6  0  0.0 -.153621658683D-04 -.227373675443D-11  .000000000000D+00
     .620000000000D+02 -.236250000000D+02  .432875173846D-08  .468551492365D+00
    -.131502747536D-05  .613919436000D-02  .110864639282D-04  .515370695496D+04
     .540000000000D+06  .121071934700D-06  .276330123470D+00 -.335276126862D-07
     .958199669297D+00  .162562500000D+03 -.180905955025D+00 -.791354391658D-08
     .222866426138D-09  .100000000000D+01  .157000000000D+04  .000000000000D+00
     .240000000000D+01  .000000000000D+00 -.149011611938D-07  .620000000000D+02
     .532806000000D+06  .400000000000D+01
21 10  2 13  6  0  0.0 -.402871519327D-04 -.250111042988D-11  .000000000000D+00
     .360000000000D+02  .318750000000D+02  .538165273887D-08 -.260780493786D+01
     .142678618431D-05  .159468253842D-01  .547245144844D-05  .515370145798D+04
     .540000000000D+06  .260770320892D-07  .126106454467D+01 -.255182385445D-06
     .932634302499D+00  .259437500000D+03 -.252564665978D+01 -.828105922507D-08
     .466448000860D-09  .100000000000D+01  .157000000000D+04  .000000000000D+00
     .240000000000D+01  .000000000000D+00 -.121071934700D-07  .360000000000D+02
     .532806000000D+06  .400000000000D+01
24 10  2 13  6  0  0.0  .261979177594D-03  .329691829393D-11  .000000000000D+00
     .155000000000D+03  .302187500000D+02  .503199531709D-08  .200839460261D+01
     .156275928020D-05  .586565537378D-02  .534206628799D-05  .515488368797D+04
     .540000000000D+06 -.316649675369D-07  .129770302661D+01  .596046447754D-07
     .949213270748D+00  .270718750000D+03 -.474515202263D+00 -.820212736581D-08
     .250724729406D-09  .100000000000D+01  .157000000000D+04  .000000000000D+00
     .485000000000D+01  .000000000000D+00 -.139698386192D-08  .155000000000D+03
     .532806000000D+06  .400000000000D+01
26 10  2 13  6  0  0.0 -.180872157216D-04 -.363797880709D-11  .000000000000D+00
     .630000000000D+02  .893125000000D+02  .349943147965D-08 -.207990683523D+01
     .439211726189D-05  .192407029681D-01  .111181288958D-04  .515233312988D+04
     .540000000000D+06  .204890966415D-06 -.287921103561D+01 -.447034835815D-07
     .991714541714D+00  .172468750000D+03  .105752821834D+01 -.723815864122D-08
     .277511559470D-09  .100000000000D+01  .157000000000D+04  .000000000000D+00
     .240000000000D+01  .000000000000D+00 -.605359673500D-08  .630000000000D+02
     .532806000000D+06  .400000000000D+01
